COSMOS 2251 DEB         
1 35672U 93036APP 17345.29375616  .00001047  00000-0  22241-3 0  9999
2 35672  74.0597  91.0472 0048528 185.5532 205.6515 14.59683869448544
